     2.10           G: GLONASS NAV DATA                     RINEX VERSION / TYPE
teqc  2015Jun23                         20220617 01:25:42UTCPGM / RUN BY / DATE
Linux 2.4.21-27.ELsmp|Opteron|gcc -static|Linux x86_64|=+   COMMENT
  2022     6     6   -0.000000000000D+00                    CORR TO SYSTEM TIME
                                                            END OF HEADER
 6 22  6  7 16 15  0.0-5.262624472380D-05-1.818989403546D-12 5.760000000000D+04
   -1.724105078125D+04-1.753114700317D+00-0.000000000000D+00 0.000000000000D+00
    1.276610058594D+04 7.111454010010D-01-9.313225746155D-10-4.000000000000D+00
    1.378077587891D+04-2.852519035339D+00-1.862645149231D-09 0.000000000000D+00
 9 22  6  7 16 15  0.0 5.925353616476D-05 2.728484105319D-12 5.760000000000D+04
   -9.630247558594D+03 3.871116638184D-01 9.313225746155D-10 0.000000000000D+00
    2.129401708984D+04-1.357870101929D+00-0.000000000000D+00-2.000000000000D+00
    1.033351464844D+04 3.157383918762D+00-1.862645149231D-09 0.000000000000D+00
10 22  6  7 16 15  0.0-8.309073746204D-05-0.000000000000D+00 5.760000000000D+04
   -2.545084960938D+03-1.843070983887D-02 9.313225746155D-10 0.000000000000D+00
    2.472919384766D+04 7.745189666748D-01 0.000000000000D+00-7.000000000000D+00
   -5.556511718750D+03 3.464763641357D+00-0.000000000000D+00 0.000000000000D+00
11 22  6  7 16 15  0.0 3.688875585794D-05-9.094947017729D-13 5.760000000000D+04
    6.585381835938D+03-4.854755401611D-01 0.000000000000D+00 0.000000000000D+00
    1.444254101562D+04 2.693746566772D+00 9.313225746155D-10 0.000000000000D+00
   -1.996090136719D+04 1.786201477051D+00 1.862645149231D-09 0.000000000000D+00
21 22  6  7 16 15  0.0-3.075348213315D-04-2.728484105319D-12 5.760000000000D+04
    9.838636718750D+03-1.326615333557D+00 9.313225746155D-10 0.000000000000D+00
    1.843129052734D+04-1.514326095581D+00 9.313225746155D-10 4.000000000000D+00
   -1.462405126953D+04-2.804632186890D+00 1.862645149231D-09 0.000000000000D+00
 9 22  6  7 16 45  0.0 5.925819277763D-05 2.728484105319D-12 5.940000000000D+04
   -9.032971679688D+03 2.402763366699D-01 0.000000000000D+00 0.000000000000D+00
    1.815300732422D+04-2.108187675476D+00-9.313225746155D-10-2.000000000000D+00
    1.554629687500D+04 2.597155570984D+00-1.862645149231D-09 0.000000000000D+00
 6 22  6  7 16 45  0.0-5.263090133667D-05-1.818989403546D-12 5.940000000000D+04
   -1.967979541016D+04-9.470672607422D-01-0.000000000000D+00 0.000000000000D+00
    1.399791552734D+04 6.152133941650D-01-9.313225746155D-10-4.000000000000D+00
    8.179225585938D+03-3.330965995789D+00-1.862645149231D-09 0.000000000000D+00
10 22  6  7 16 45  0.0-8.309260010719D-05-0.000000000000D+00 5.940000000000D+04
   -2.386041503906D+03 1.558418273926D-01 9.313225746155D-10 0.000000000000D+00
    2.534582763672D+04-1.005601882935D-01-0.000000000000D+00-7.000000000000D+00
    8.148774414062D+02 3.568388938904D+00-9.313225746155D-10 0.000000000000D+00
11 22  6  7 16 45  0.0 3.688596189022D-05-9.094947017729D-13 5.940000000000D+04
    6.121296875000D+03-4.931259155273D-02 9.313225746155D-10 0.000000000000D+00
    1.888469384766D+04 2.197896957397D+00 0.000000000000D+00 0.000000000000D+00
   -1.601532421875D+04 2.569251060486D+00 9.313225746155D-10 0.000000000000D+00
21 22  6  7 16 45  0.0-3.075413405895D-04-2.728484105319D-12 5.940000000000D+04
    6.806308593750D+03-2.031275749207D+00 0.000000000000D+00 0.000000000000D+00
    1.554559716797D+04-1.644772529602D+00 0.000000000000D+00 4.000000000000D+00
   -1.904150097656D+04-2.071829795837D+00 1.862645149231D-09 0.000000000000D+00
 7 22  6  7 16 45  0.0 3.610830754042D-05 0.000000000000D+00 5.946000000000D+04
   -5.830281250000D+03-2.560653686523D+00 9.313225746155D-10 0.000000000000D+00
    1.352373632812D+04 1.245481491089D+00-9.313225746155D-10 5.000000000000D+00
    2.085773535156D+04-1.530362129211D+00-1.862645149231D-09 0.000000000000D+00
 9 22  6  7 17 15  0.0 5.926284939051D-05 2.728484105319D-12 6.120000000000D+04
   -8.878336914062D+03-9.387016296387D-02 0.000000000000D+00 0.000000000000D+00
    1.381922265625D+04-2.668317794800D+00-9.313225746155D-10-2.000000000000D+00
    1.956289794922D+04 1.836813926697D+00-2.793967723846D-09 0.000000000000D+00
 6 22  6  7 17 15  0.0-5.263462662697D-05-1.818989403546D-12 6.120000000000D+04
   -2.065105419922D+04-1.418333053589D-01-9.313225746155D-10 0.000000000000D+00
    1.482989697266D+04 2.691860198975D-01-9.313225746155D-10-4.000000000000D+00
    1.944426757812D+03-3.551542282104D+00-9.313225746155D-10 0.000000000000D+00
 7 22  6  7 17 15  0.0 3.611017018557D-05 0.000000000000D+00 6.120000000000D+04
   -9.912554199219D+03-1.947753906250D+00 0.000000000000D+00 0.000000000000D+00
    1.589403613281D+04 1.347851753235D+00-9.313225746155D-10 5.000000000000D+00
    1.733433544922D+04-2.359360694885D+00-1.862645149231D-09 0.000000000000D+00
10 22  6  7 17 15  0.0-8.309353142977D-05-0.000000000000D+00 6.120000000000D+04
   -2.129945800781D+03 8.849430084229D-02 9.313225746155D-10 0.000000000000D+00
    2.436228320312D+04-9.837322235107D-01-0.000000000000D+00-7.000000000000D+00
    7.122967773438D+03 3.394883155823D+00-9.313225746155D-10 0.000000000000D+00
11 22  6  7 17 15  0.0 3.688409924507D-05-9.094947017729D-13 6.120000000000D+04
    6.312541015625D+03 2.290077209473D-01 9.313225746155D-10 0.000000000000D+00
    2.221788476562D+04 1.474751472473D+00 0.000000000000D+00 0.000000000000D+00
   -1.083126513672D+04 3.153377532959D+00 0.000000000000D+00 0.000000000000D+00
21 22  6  7 17 15  0.0-3.075469285250D-04-2.728484105319D-12 6.120000000000D+04
    2.601064941406D+03-2.611452102661D+00-0.000000000000D+00 0.000000000000D+00
    1.267285595703D+04-1.505496025085D+00 0.000000000000D+00 4.000000000000D+00
   -2.198654345703D+04-1.179278373718D+00 1.862645149231D-09 0.000000000000D+00
 9 22  6  7 17 45  0.0 5.926750600338D-05 2.728484105319D-12 6.300000000000D+04
   -9.435663574219D+03-5.352525711060D-01-0.000000000000D+00 0.000000000000D+00
    8.705547363281D+03-2.965646743774D+00-9.313225746155D-10-2.000000000000D+00
    2.207336572266D+04 9.344081878662D-01-2.793967723846D-09 0.000000000000D+00
 6 22  6  7 17 45  0.0-5.263835191727D-05-1.818989403546D-12 6.300000000000D+04
   -2.025751123047D+04 5.522708892822D-01-1.862645149231D-09 0.000000000000D+00
    1.483765087891D+04-2.910604476929D-01-0.000000000000D+00-4.000000000000D+00
   -4.440918945312D+03-3.497160911560D+00-9.313225746155D-10 0.000000000000D+00
 7 22  6  7 17 45  0.0 3.611110150814D-05 0.000000000000D+00 6.300000000000D+04
   -1.277513574219D+04-1.223569869995D+00-0.000000000000D+00 0.000000000000D+00
    1.821966845703D+04 1.191149711609D+00-9.313225746155D-10 5.000000000000D+00
    1.247293212891D+04-3.007321357727D+00-1.862645149231D-09 0.000000000000D+00
10 22  6  7 17 45  0.0-8.309539407492D-05-0.000000000000D+00 6.300000000000D+04
   -2.202961914062D+03-2.032566070557D-01 0.000000000000D+00 0.000000000000D+00
    2.186934130859D+04-1.759227752686D+00-9.313225746155D-10-7.000000000000D+00
    1.287791357422D+04 2.957837104797D+00-1.862645149231D-09 0.000000000000D+00
11 22  6  7 17 45  0.0 3.688223659992D-05-9.094947017729D-13 6.300000000000D+04
    6.811512695312D+03 2.850351333618D-01 9.313225746155D-10 0.000000000000D+00
    2.411350244141D+04 6.184434890747D-01-0.000000000000D+00 0.000000000000D+00
   -4.809906250000D+03 3.493573188782D+00-0.000000000000D+00 0.000000000000D+00
21 22  6  7 17 45  0.0-3.075515851378D-04-2.728484105319D-12 6.300000000000D+04
   -2.460177246094D+03-2.968168258667D+00-9.313225746155D-10 0.000000000000D+00
    1.025563916016D+04-1.151027679443D+00 0.000000000000D+00 4.000000000000D+00
   -2.323238037109D+04-1.960849761963D-01 9.313225746155D-10 0.000000000000D+00
 8 22  6  7 17 45  0.0-6.555207073689D-05 0.000000000000D+00 6.354000000000D+04
    1.510934082031D+03-2.311272621155D+00 9.313225746155D-10 0.000000000000D+00
    1.243942138672D+04 1.966281890869D+00-9.313225746155D-10 6.000000000000D+00
    2.227499023438D+04-9.458694458008D-01-1.862645149231D-09 0.000000000000D+00
12 22  6  7 17 45  0.0 1.876801252365D-05-0.000000000000D+00 6.450000000000D+04
    1.157374218750D+04 5.484628677368D-01 0.000000000000D+00 0.000000000000D+00
    1.100578613281D+04 2.671133995056D+00 0.000000000000D+00-1.000000000000D+00
   -1.985673828125D+04 1.798921585083D+00 1.862645149231D-09 0.000000000000D+00
 6 22  6  7 18 15  0.0-5.264207720757D-05-1.818989403546D-12 6.480000000000D+04
   -1.878361718750D+04 1.046357154846D+00-1.862645149231D-09 0.000000000000D+00
    1.369810253906D+04-9.903459548950D-01 0.000000000000D+00-4.000000000000D+00
   -1.048253906250D+04-3.172132492065D+00-0.000000000000D+00 0.000000000000D+00
 7 22  6  7 18 15  0.0 3.611203283072D-05 0.000000000000D+00 6.480000000000D+04
   -1.431826220703D+04-5.006666183472D-01-9.313225746155D-10 0.000000000000D+00
    2.002257958984D+04 7.699975967407D-01-0.000000000000D+00 5.000000000000D+00
    6.647343261719D+03-3.423602104187D+00-1.862645149231D-09 0.000000000000D+00
 8 22  6  7 18 15  0.0-6.555113941431D-05 0.000000000000D+00 6.480000000000D+04
   -2.180666503906D+03-1.767165184021D+00 0.000000000000D+00 0.000000000000D+00
    1.607462548828D+04 2.028546333313D+00-9.313225746155D-10 6.000000000000D+00
    1.973802294922D+04-1.854951858521D+00-1.862645149231D-09 0.000000000000D+00
10 22  6  7 18 15  0.0-8.309632539749D-05-0.000000000000D+00 6.480000000000D+04
   -2.961419433594D+03-6.601753234863D-01 0.000000000000D+00 0.000000000000D+00
    1.815370214844D+04-2.328105926514D+00-9.313225746155D-10-7.000000000000D+00
    1.763328125000D+04 2.291559219360D+00-1.862645149231D-09 0.000000000000D+00
11 22  6  7 18 15  0.0 3.688037395477D-05-9.094947017729D-13 6.480000000000D+04
    7.190258789062D+03 9.524726867676D-02 9.313225746155D-10 0.000000000000D+00
    2.443260009766D+04-2.572879791260D-01-0.000000000000D+00 0.000000000000D+00
    1.583155761719D+03 3.563735008240D+00-9.313225746155D-10 0.000000000000D+00
